[{"OBJECT_NAME":"STARLINK-30988","OBJECT_ID":"2023-191X","EPOCH":"2026-03-09T10:30:18.410112","MEAN_MOTION":15.27584834,"ECCENTRICITY":0.00011644,"INCLINATION":42.9991,"RA_OF_ASC_NODE":104.7823,"ARG_OF_PERICENTER":338.4821,"MEAN_ANOMALY":21.5982,"EPHEMERIS_TYPE":0,"CLASSIFICATION_TYPE":"U","NORAD_CAT_ID":58529,"ELEMENT_SET_NO":999,"REV_AT_EPOCH":12543,"BSTAR":0.00021102299,"MEAN_MOTION_DOT":5.55e-5,"MEAN_MOTION_DDOT":0},{"OBJECT_NAME":"DMSP 5D-2 F14 DEB","OBJECT_ID":"1997-012E","EPOCH":"2026-03-09T23:05:42.500544","MEAN_MOTION":15.25086034,"ECCENTRICITY":0.00083151,"INCLINATION":98.7933,"RA_OF_ASC_NODE":208.6058,"ARG_OF_PERICENTER":272.9178,"MEAN_ANOMALY":87.1104,"EPHEMERIS_TYPE":0,"CLASSIFICATION_TYPE":"U","NORAD_CAT_ID":24778,"ELEMENT_SET_NO":999,"REV_AT_EPOCH":51788,"BSTAR":0.0054670036,"MEAN_MOTION_DOT":0.00139299,"MEAN_MOTION_DDOT":0}]
